[{"OBJECT_NAME":"HODOYOSHI-3","OBJECT_ID":"2014-033F","EPOCH":"2025-03-09T22:06:39.391200","MEAN_MOTION":14.8346019,"ECCENTRICITY":0.0035151,"INCLINATION":97.603,"RA_OF_ASC_NODE":247.4158,"ARG_OF_PERICENTER":83.2913,"MEAN_ANOMALY":277.23,"EPHEMERIS_TYPE":0,"CLASSIFICATION_TYPE":"U","NORAD_CAT_ID":40015,"ELEMENT_SET_NO":999,"REV_AT_EPOCH":57874,"BSTAR":0.00043947,"MEAN_MOTION_DOT":3.6e-5,"MEAN_MOTION_DDOT":0},{"OBJECT_NAME":"SPOT 7","OBJECT_ID":"2014-034A","EPOCH":"2025-03-09T20:46:08.699808","MEAN_MOTION":14.60259544,"ECCENTRICITY":0.0001087,"INCLINATION":98.1224,"RA_OF_ASC_NODE":136.8593,"ARG_OF_PERICENTER":104.1803,"MEAN_ANOMALY":255.9518,"EPHEMERIS_TYPE":0,"CLASSIFICATION_TYPE":"U","NORAD_CAT_ID":40053,"ELEMENT_SET_NO":999,"REV_AT_EPOCH":56937,"BSTAR":0.00022632,"MEAN_MOTION_DOT":1.046e-5,"MEAN_MOTION_DDOT":0},{"OBJECT_NAME":"SKYSAT-B","OBJECT_ID":"2014-037D","EPOCH":"2025-03-09T18:50:52.266624","MEAN_MOTION":14.86042044,"ECCENTRICITY":0.0005767,"INCLINATION":98.3372,"RA_OF_ASC_NODE":358.6323,"ARG_OF_PERICENTER":359.3487,"MEAN_ANOMALY":0.7718,"EPHEMERIS_TYPE":0,"CLASSIFICATION_TYPE":"U","NORAD_CAT_ID":40072,"ELEMENT_SET_NO":999,"REV_AT_EPOCH":57694,"BSTAR":0.00033175,"MEAN_MOTION_DOT":2.843e-5,"MEAN_MOTION_DDOT":0},{"OBJECT_NAME":"WORLDVIEW-3 (WV-3)","OBJECT_ID":"2014-048A","EPOCH":"2025-03-09T20:34:33.340512","MEAN_MOTION":14.84831876,"ECCENTRICITY":0.0006379,"INCLINATION":97.866,"RA_OF_ASC_NODE":144.5416,"ARG_OF_PERICENTER":61.3435,"MEAN_ANOMALY":298.8421,"EPHEMERIS_TYPE":0,"CLASSIFICATION_TYPE":"U","NORAD_CAT_ID":40115,"ELEMENT_SET_NO":999,"REV_AT_EPOCH":57299,"BSTAR":0.00026528,"MEAN_MOTION_DOT":2.2e-5,"MEAN_MOTION_DDOT":0},{"OBJECT_NAME":"GAOFEN-2","OBJECT_ID":"2014-049A","EPOCH":"2025-03-09T21:15:14.639904","MEAN_MOTION":14.80565357,"ECCENTRICITY":0.0004106,"INCLINATION":98.0727,"RA_OF_ASC_NODE":127.0174,"ARG_OF_PERICENTER":268.8905,"MEAN_ANOMALY":91.1836,"EPHEMERIS_TYPE":0,"CLASSIFICATION_TYPE":"U","NORAD_CAT_ID":40118,"ELEMENT_SET_NO":999,"REV_AT_EPOCH":57053,"BSTAR":0.00032492,"MEAN_MOTION_DOT":2.438e-5,"MEAN_MOTION_DDOT":0},{"OBJECT_NAME":"YAOGAN-21","OBJECT_ID":"2014-053A","EPOCH":"2025-03-09T21:20:52.158912","MEAN_MOTION":15.23694919,"ECCENTRICITY":0.0014356,"INCLINATION":97.2137,"RA_OF_ASC_NODE":123.5234,"ARG_OF_PERICENTER":328.598,"MEAN_ANOMALY":31.4399,"EPHEMERIS_TYPE":0,"CLASSIFICATION_TYPE":"U","NORAD_CAT_ID":40143,"ELEMENT_SET_NO":999,"REV_AT_EPOCH":58423,"BSTAR":0.00064322,"MEAN_MOTION_DOT":0.00015432,"MEAN_MOTION_DDOT":0},{"OBJECT_NAME":"YAOGAN-22","OBJECT_ID":"2014-063A","EPOCH":"2025-03-09T21:21:19.072512","MEAN_MOTION":13.15504742,"ECCENTRICITY":0.0006738,"INCLINATION":100.6976,"RA_OF_ASC_NODE":208.9449,"ARG_OF_PERICENTER":152.3197,"MEAN_ANOMALY":207.8274,"EPHEMERIS_TYPE":0,"CLASSIFICATION_TYPE":"U","NORAD_CAT_ID":40275,"ELEMENT_SET_NO":999,"REV_AT_EPOCH":49876,"BSTAR":0.00012037,"MEAN_MOTION_DOT":-1.0e-8,"MEAN_MOTION_DDOT":0},{"OBJECT_NAME":"ASNARO","OBJECT_ID":"2014-070A","EPOCH":"2025-03-09T20:28:13.105344","MEAN_MOTION":15.19894999,"ECCENTRICITY":0.0002017,"INCLINATION":97.3846,"RA_OF_ASC_NODE":151.1759,"ARG_OF_PERICENTER":124.6816,"MEAN_ANOMALY":235.4609,"EPHEMERIS_TYPE":0,"CLASSIFICATION_TYPE":"U","NORAD_CAT_ID":40298,"ELEMENT_SET_NO":999,"REV_AT_EPOCH":57349,"BSTAR":0.00097136,"MEAN_MOTION_DOT":0.00020834,"MEAN_MOTION_DDOT":0},{"OBJECT_NAME":"HODOYOSHI-1","OBJECT_ID":"2014-070B","EPOCH":"2025-03-09T21:10:26.118336","MEAN_MOTION":16.21473214,"ECCENTRICITY":0.0004723,"INCLINATION":97.0674,"RA_OF_ASC_NODE":138.3195,"ARG_OF_PERICENTER":244.9967,"MEAN_ANOMALY":115.0833,"EPHEMERIS_TYPE":0,"CLASSIFICATION_TYPE":"U","NORAD_CAT_ID":40299,"ELEMENT_SET_NO":999,"REV_AT_EPOCH":57670,"BSTAR":0.00084234,"MEAN_MOTION_DOT":0.01772452,"MEAN_MOTION_DDOT":2.2479e-6},{"OBJECT_NAME":"YAOGAN-24","OBJECT_ID":"2014-072A","EPOCH":"2025-03-09T21:37:50.420928","MEAN_MOTION":14.76141372,"ECCENTRICITY":0.0012045,"INCLINATION":98.0831,"RA_OF_ASC_NODE":199.1515,"ARG_OF_PERICENTER":320.2409,"MEAN_ANOMALY":39.7917,"EPHEMERIS_TYPE":0,"CLASSIFICATION_TYPE":"U","NORAD_CAT_ID":40310,"ELEMENT_SET_NO":999,"REV_AT_EPOCH":55522,"BSTAR":0.00027668,"MEAN_MOTION_DOT":1.861e-5,"MEAN_MOTION_DDOT":0},{"OBJECT_NAME":"CBERS 4","OBJECT_ID":"2014-079A","EPOCH":"2025-03-09T21:27:47.782656","MEAN_MOTION":14.3548982,"ECCENTRICITY":6.49e-5,"INCLINATION":98.3644,"RA_OF_ASC_NODE":135.8215,"ARG_OF_PERICENTER":123.9225,"MEAN_ANOMALY":236.2023,"EPHEMERIS_TYPE":0,"CLASSIFICATION_TYPE":"U","NORAD_CAT_ID":40336,"ELEMENT_SET_NO":999,"REV_AT_EPOCH":53736,"BSTAR":0.00012302,"MEAN_MOTION_DOT":3.11e-6,"MEAN_MOTION_DDOT":0},{"OBJECT_NAME":"YAOGAN-26","OBJECT_ID":"2014-088A","EPOCH":"2025-03-09T22:05:30.033600","MEAN_MOTION":15.29215833,"ECCENTRICITY":0.0003521,"INCLINATION":97.0703,"RA_OF_ASC_NODE":81.5016,"ARG_OF_PERICENTER":294.3265,"MEAN_ANOMALY":65.7608,"EPHEMERIS_TYPE":0,"CLASSIFICATION_TYPE":"U","NORAD_CAT_ID":40362,"ELEMENT_SET_NO":999,"REV_AT_EPOCH":56635,"BSTAR":0.00075182,"MEAN_MOTION_DOT":0.00021282,"MEAN_MOTION_DDOT":0},{"OBJECT_NAME":"SMAP","OBJECT_ID":"2015-003A","EPOCH":"2025-03-09T22:37:29.063136","MEAN_MOTION":14.63314189,"ECCENTRICITY":0.0001543,"INCLINATION":98.1308,"RA_OF_ASC_NODE":77.5749,"ARG_OF_PERICENTER":97.5272,"MEAN_ANOMALY":262.6105,"EPHEMERIS_TYPE":0,"CLASSIFICATION_TYPE":"U","NORAD_CAT_ID":40376,"ELEMENT_SET_NO":999,"REV_AT_EPOCH":53972,"BSTAR":0.00023989,"MEAN_MOTION_DOT":1.191e-5,"MEAN_MOTION_DDOT":0},{"OBJECT_NAME":"KOMPSAT-3A","OBJECT_ID":"2015-014A","EPOCH":"2025-03-09T20:25:50.086560","MEAN_MOTION":15.32908482,"ECCENTRICITY":0.0005225,"INCLINATION":97.6463,"RA_OF_ASC_NODE":30.94,"ARG_OF_PERICENTER":90.132,"MEAN_ANOMALY":270.052,"EPHEMERIS_TYPE":0,"CLASSIFICATION_TYPE":"U","NORAD_CAT_ID":40536,"ELEMENT_SET_NO":999,"REV_AT_EPOCH":55023,"BSTAR":0.00072243,"MEAN_MOTION_DOT":0.00022933,"MEAN_MOTION_DDOT":0},{"OBJECT_NAME":"SENTINEL-2A","OBJECT_ID":"2015-028A","EPOCH":"2025-03-09T21:05:43.395936","MEAN_MOTION":14.3081227,"ECCENTRICITY":0.0001154,"INCLINATION":98.5675,"RA_OF_ASC_NODE":145.3804,"ARG_OF_PERICENTER":97.2972,"MEAN_ANOMALY":262.8342,"EPHEMERIS_TYPE":0,"CLASSIFICATION_TYPE":"U","NORAD_CAT_ID":40697,"ELEMENT_SET_NO":999,"REV_AT_EPOCH":50733,"BSTAR":0.00013503,"MEAN_MOTION_DOT":3.1e-6,"MEAN_MOTION_DDOT":0},{"OBJECT_NAME":"GAOFEN-8","OBJECT_ID":"2015-030A","EPOCH":"2025-03-09T21:58:55.902720","MEAN_MOTION":15.28213646,"ECCENTRICITY":0.0013198,"INCLINATION":97.6796,"RA_OF_ASC_NODE":235.8751,"ARG_OF_PERICENTER":41.7773,"MEAN_ANOMALY":318.4471,"EPHEMERIS_TYPE":0,"CLASSIFICATION_TYPE":"U","NORAD_CAT_ID":40701,"ELEMENT_SET_NO":999,"REV_AT_EPOCH":54013,"BSTAR":0.00086343,"MEAN_MOTION_DOT":0.00023771,"MEAN_MOTION_DDOT":0},{"OBJECT_NAME":"CARBONITE 1 (CBNT-1)","OBJECT_ID":"2015-032D","EPOCH":"2025-03-09T20:56:43.944576","MEAN_MOTION":14.81121738,"ECCENTRICITY":0.0015379,"INCLINATION":97.6465,"RA_OF_ASC_NODE":262.42,"ARG_OF_PERICENTER":21.0899,"MEAN_ANOMALY":339.0945,"EPHEMERIS_TYPE":0,"CLASSIFICATION_TYPE":"U","NORAD_CAT_ID":40718,"ELEMENT_SET_NO":999,"REV_AT_EPOCH":52055,"BSTAR":0.00053797,"MEAN_MOTION_DOT":4.139e-5,"MEAN_MOTION_DDOT":0}]
