HODOYOSHI-3             
1 40015U 14033F   25068.92128925  .00003600  00000+0  43947-3 0  9998
2 40015  97.6030 247.4158 0035151  83.2913 277.2300 14.83460190578747
SPOT 7                  
1 40053U 14034A   25068.86537847  .00001046  00000+0  22632-3 0  9991
2 40053  98.1224 136.8593 0001087 104.1803 255.9518 14.60259544569373
SKYSAT-B                
1 40072U 14037D   25068.78532716  .00002843  00000+0  33175-3 0  9996
2 40072  98.3372 358.6323 0005767 359.3487   0.7718 14.86042044576948
WORLDVIEW-3 (WV-3)      
1 40115U 14048A   25068.85733033  .00002200  00000+0  26528-3 0  9990
2 40115  97.8660 144.5416 0006379  61.3435 298.8421 14.84831876572997
GAOFEN-2                
1 40118U 14049A   25068.88558611  .00002438  00000+0  32492-3 0  9994
2 40118  98.0727 127.0174 0004106 268.8905  91.1836 14.80565357570532
YAOGAN-21               
1 40143U 14053A   25068.88949258  .00015432  00000+0  64322-3 0  9993
2 40143  97.2137 123.5234 0014356 328.5980  31.4399 15.23694919584237
YAOGAN-22               
1 40275U 14063A   25068.88980408 -.00000001  00000+0  12037-3 0  9995
2 40275 100.6976 208.9449 0006738 152.3197 207.8274 13.15504742498763
ASNARO                  
1 40298U 14070A   25068.85292946  .00020834  00000+0  97136-3 0  9996
2 40298  97.3846 151.1759 0002017 124.6816 235.4609 15.19894999573490
HODOYOSHI-1             
1 40299U 14070B   25068.88224674  .01772452  22479-5  84234-3 0  9999
2 40299  97.0674 138.3195 0004723 244.9967 115.0833 16.21473214576703
YAOGAN-24               
1 40310U 14072A   25068.90127802  .00001861  00000+0  27668-3 0  9999
2 40310  98.0831 199.1515 0012045 320.2409  39.7917 14.76141372555223
CBERS 4                 
1 40336U 14079A   25068.89430304  .00000311  00000+0  12302-3 0  9994
2 40336  98.3644 135.8215 0000649 123.9225 236.2023 14.35489820537366
YAOGAN-26               
1 40362U 14088A   25068.92048650  .00021282  00000+0  75182-3 0  9991
2 40362  97.0703  81.5016 0003521 294.3265  65.7608 15.29215833566352
SMAP                    
1 40376U 15003A   25068.94269749  .00001191  00000+0  23989-3 0  9995
2 40376  98.1308  77.5749 0001543  97.5272 262.6105 14.63314189539723
KOMPSAT-3A              
1 40536U 15014A   25068.85127415  .00022933  00000+0  72243-3 0  9992
2 40536  97.6463  30.9400 0005225  90.1320 270.0520 15.32908482550233
SENTINEL-2A             
1 40697U 15028A   25068.87897449  .00000310  00000+0  13503-3 0  9997
2 40697  98.5675 145.3804 0001154  97.2972 262.8342 14.30812270507333
GAOFEN-8                
1 40701U 15030A   25068.91592480  .00023771  00000+0  86343-3 0  9996
2 40701  97.6796 235.8751 0013198  41.7773 318.4471 15.28213646540139
CARBONITE 1 (CBNT-1)    
1 40718U 15032D   25068.87273084  .00004139  00000+0  53797-3 0  9991
2 40718  97.6465 262.4200 0015379  21.0899 339.0945 14.81121738520555
